[{"OBJECT_NAME":"OBJECT F","OBJECT_ID":"2024-153F","EPOCH":"2026-03-09T23:13:25.507776","MEAN_MOTION":15.23037528,"ECCENTRICITY":0.00053669,"INCLINATION":97.6558,"RA_OF_ASC_NODE":203.2719,"ARG_OF_PERICENTER":225.0651,"MEAN_ANOMALY":135.0151,"EPHEMERIS_TYPE":0,"CLASSIFICATION_TYPE":"U","NORAD_CAT_ID":60750,"ELEMENT_SET_NO":999,"REV_AT_EPOCH":8468,"BSTAR":0.00084475391,"MEAN_MOTION_DOT":0.00019856,"MEAN_MOTION_DDOT":0},{"OBJECT_NAME":"LEMUR-2-AFFIE-WAUWIE","OBJECT_ID":"2025-248C","EPOCH":"2026-03-09T21:49:29.414208","MEAN_MOTION":15.23594811,"ECCENTRICITY":0.00085622,"INCLINATION":45.4084,"RA_OF_ASC_NODE":291.4282,"ARG_OF_PERICENTER":229.4361,"MEAN_ANOMALY":130.5782,"EPHEMERIS_TYPE":0,"CLASSIFICATION_TYPE":"U","NORAD_CAT_ID":66295,"ELEMENT_SET_NO":999,"REV_AT_EPOCH":1943,"BSTAR":0.00079981928,"MEAN_MOTION_DOT":0.00019264,"MEAN_MOTION_DDOT":0}]
